[{"OBJECT_NAME":"MCUBED-2","OBJECT_ID":"2013-072L","EPOCH":"2026-03-09T22:49:27.284736","MEAN_MOTION":15.59782731,"ECCENTRICITY":0.0052286,"INCLINATION":120.4818,"RA_OF_ASC_NODE":108.7467,"ARG_OF_PERICENTER":309.4194,"MEAN_ANOMALY":50.2277,"EPHEMERIS_TYPE":0,"CLASSIFICATION_TYPE":"U","NORAD_CAT_ID":39472,"ELEMENT_SET_NO":999,"REV_AT_EPOCH":10128,"BSTAR":0.0011197913,"MEAN_MOTION_DOT":0.00097876,"MEAN_MOTION_DDOT":0},{"OBJECT_NAME":"STARLINK-11578 [DTC]","OBJECT_ID":"2025-032K","EPOCH":"2026-03-09T14:00:21.863232","MEAN_MOTION":15.70906127,"ECCENTRICITY":0.000124,"INCLINATION":42.9991,"RA_OF_ASC_NODE":196.2879,"ARG_OF_PERICENTER":275.2968,"MEAN_ANOMALY":84.7758,"EPHEMERIS_TYPE":0,"CLASSIFICATION_TYPE":"U","NORAD_CAT_ID":63014,"ELEMENT_SET_NO":999,"REV_AT_EPOCH":6214,"BSTAR":0.00044312,"MEAN_MOTION_DOT":0.00056959,"MEAN_MOTION_DDOT":0}]
